[Satellite]
VERSION=1.1
NAME=VENTA 1
NICKNAME=VENTA 1
TLE1=1 42791U 17036AC  22335.58305073  .00014487  00000-0  44994-3 0  9993
TLE2=2 42791  97.1801  13.4312 0010250  87.3325 272.9091 15.33410575302639
STATUS=0
